STARLINK-36624          
1 67636U 26020V   26053.00003472  .00101705  00000+0  62148-3 0  9997
2 67636  42.9996 237.0806 0001782 278.4829 125.1910 15.76314803  4868
STARLINK-36610          
1 67637U 26020W   26053.83792238  .00224898  00000+0  13441-2 0  9994
2 67637  42.9982 232.2960 0002128 273.1707  86.8919 15.76427588  3747
STARLINK-36599          
1 67638U 26020X   26052.59505837  .00375504  00000+0  17085-2 0  9993
2 67638  42.9983 239.2951 0003095 287.9163  72.1371 15.82028119  3552
STARLINK-36595          
1 67639U 26020Y   26053.00003472  .00166476  00000+0  10093-2 0  9997
2 67639  42.9992 236.9868 0001767 266.7354 174.2725 15.76277063  4864
STARLINK-36570          
1 67640U 26020Z   26053.89471067  .00282506  00000+0  16708-2 0  9997
2 67640  43.0001 231.8588 0003606 272.3577  87.6880 15.76495963  3753
STARLINK-36514          
1 67641U 26020AA  26053.91668981  .00099937  00000+0  61096-3 0  9999
2 67641  42.9993 231.1978 0001669 266.3603  70.0106 15.76310946  5013
STARLINK-36556          
1 67642U 26020AB  26053.88377970  .00091114  00000+0  55630-3 0  9997
2 67642  42.9985 231.7673 0001797 256.2869 103.7801 15.76374659  3753
STARLINK-36533          
1 67643U 26020AC  26053.83353139 -.00080041  00000+0 -49318-3 0  9999
2 67643  42.9984 232.2588 0001126 319.7190  40.3596 15.76366936  3747
STARLINK-36623          
1 67644U 26020AD  26053.89033678  .00236994  00000+0  14117-2 0  9995
2 67644  42.9982 231.8200 0001771 283.7097  76.3576 15.76468084  3759
STARLINK-36619          
1 67645U 26020AE  26053.88815344  .00302037  00000+0  17841-2 0  9992
2 67645  42.9968 231.8034 0001419 319.4635  40.6128 15.76471348  3757
ALSAT-3B                
1 67646U 26021A   26053.93616216  .00008165  00000+0  34220-3 0  9993
2 67646  97.4691 128.3370 0012729 180.8634 179.2583 15.23707840  3478
CZ-2C R/B               
1 67647U 26021B   26053.93951595  .00014772  00000+0  44419-3 0  9998
2 67647  97.6531 129.1131 0152909  62.5866 299.0831 15.23666320  3458
