CCSDS_OMM_VERS = 2.0
CREATION_DATE  = 
ORIGINATOR     = 

OBJECT_NAME    = STARLINK-36624
OBJECT_ID      = 2026-020V
CENTER_NAME    = EARTH
REF_FRAME      = TEME
TIME_SYSTEM    = UTC
MEAN_ELEMENT_THEORY = SGP/SGP4

EPOCH          = 2026-02-22T00:00:02.999808
MEAN_MOTION    = 15.76314803
ECCENTRICITY   = .00017828
INCLINATION    = 42.9996
RA_OF_ASC_NODE = 237.0806
ARG_OF_PERICENTER = 278.4829
MEAN_ANOMALY   = 125.1910

EPHEMERIS_TYPE = 0
CLASSIFICATION_TYPE = U
NORAD_CAT_ID   = 67636
ELEMENT_SET_NO = 999
REV_AT_EPOCH   = 486
BSTAR          = .6214803E-3
MEAN_MOTION_DOT = .101705E-2
MEAN_MOTION_DDOT = 0

CCSDS_OMM_VERS = 2.0
CREATION_DATE  = 
ORIGINATOR     = 

OBJECT_NAME    = STARLINK-36610
OBJECT_ID      = 2026-020W
CENTER_NAME    = EARTH
REF_FRAME      = TEME
TIME_SYSTEM    = UTC
MEAN_ELEMENT_THEORY = SGP/SGP4

EPOCH          = 2026-02-22T20:06:36.493632
MEAN_MOTION    = 15.76427588
ECCENTRICITY   = .00021288
INCLINATION    = 42.9982
RA_OF_ASC_NODE = 232.2960
ARG_OF_PERICENTER = 273.1707
MEAN_ANOMALY   = 86.8919

EPHEMERIS_TYPE = 0
CLASSIFICATION_TYPE = U
NORAD_CAT_ID   = 67637
ELEMENT_SET_NO = 999
REV_AT_EPOCH   = 374
BSTAR          = .13440594E-2
MEAN_MOTION_DOT = .224898E-2
MEAN_MOTION_DDOT = 0

CCSDS_OMM_VERS = 2.0
CREATION_DATE  = 
ORIGINATOR     = 

OBJECT_NAME    = STARLINK-36599
OBJECT_ID      = 2026-020X
CENTER_NAME    = EARTH
REF_FRAME      = TEME
TIME_SYSTEM    = UTC
MEAN_ELEMENT_THEORY = SGP/SGP4

EPOCH          = 2026-02-21T14:16:53.043168
MEAN_MOTION    = 15.82028119
ECCENTRICITY   = .0003095
INCLINATION    = 42.9983
RA_OF_ASC_NODE = 239.2951
ARG_OF_PERICENTER = 287.9163
MEAN_ANOMALY   = 72.1371

EPHEMERIS_TYPE = 0
CLASSIFICATION_TYPE = U
NORAD_CAT_ID   = 67638
ELEMENT_SET_NO = 999
REV_AT_EPOCH   = 355
BSTAR          = .17085E-2
MEAN_MOTION_DOT = .375504E-2
MEAN_MOTION_DDOT = 0

CCSDS_OMM_VERS = 2.0
CREATION_DATE  = 
ORIGINATOR     = 

OBJECT_NAME    = STARLINK-36595
OBJECT_ID      = 2026-020Y
CENTER_NAME    = EARTH
REF_FRAME      = TEME
TIME_SYSTEM    = UTC
MEAN_ELEMENT_THEORY = SGP/SGP4

EPOCH          = 2026-02-22T00:00:02.999808
MEAN_MOTION    = 15.76277063
ECCENTRICITY   = .00017674
INCLINATION    = 42.9992
RA_OF_ASC_NODE = 236.9868
ARG_OF_PERICENTER = 266.7354
MEAN_ANOMALY   = 174.2725

EPHEMERIS_TYPE = 0
CLASSIFICATION_TYPE = U
NORAD_CAT_ID   = 67639
ELEMENT_SET_NO = 999
REV_AT_EPOCH   = 486
BSTAR          = .10093005E-2
MEAN_MOTION_DOT = .166476E-2
MEAN_MOTION_DDOT = 0

CCSDS_OMM_VERS = 2.0
CREATION_DATE  = 
ORIGINATOR     = 

OBJECT_NAME    = STARLINK-36570
OBJECT_ID      = 2026-020Z
CENTER_NAME    = EARTH
REF_FRAME      = TEME
TIME_SYSTEM    = UTC
MEAN_ELEMENT_THEORY = SGP/SGP4

EPOCH          = 2026-02-22T21:28:23.001888
MEAN_MOTION    = 15.76495963
ECCENTRICITY   = .00036065
INCLINATION    = 43.0001
RA_OF_ASC_NODE = 231.8588
ARG_OF_PERICENTER = 272.3577
MEAN_ANOMALY   = 87.6880

EPHEMERIS_TYPE = 0
CLASSIFICATION_TYPE = U
NORAD_CAT_ID   = 67640
ELEMENT_SET_NO = 999
REV_AT_EPOCH   = 375
BSTAR          = .1670806E-2
MEAN_MOTION_DOT = .282506E-2
MEAN_MOTION_DDOT = 0

CCSDS_OMM_VERS = 2.0
CREATION_DATE  = 
ORIGINATOR     = 

OBJECT_NAME    = STARLINK-36514
OBJECT_ID      = 2026-020AA
CENTER_NAME    = EARTH
REF_FRAME      = TEME
TIME_SYSTEM    = UTC
MEAN_ELEMENT_THEORY = SGP/SGP4

EPOCH          = 2026-02-22T22:00:01.999584
MEAN_MOTION    = 15.76310946
ECCENTRICITY   = .00016698
INCLINATION    = 42.9993
RA_OF_ASC_NODE = 231.1978
ARG_OF_PERICENTER = 266.3603
MEAN_ANOMALY   = 70.0106

EPHEMERIS_TYPE = 0
CLASSIFICATION_TYPE = U
NORAD_CAT_ID   = 67641
ELEMENT_SET_NO = 999
REV_AT_EPOCH   = 501
BSTAR          = .61096293E-3
MEAN_MOTION_DOT = .99937E-3
MEAN_MOTION_DDOT = 0

CCSDS_OMM_VERS = 2.0
CREATION_DATE  = 
ORIGINATOR     = 

OBJECT_NAME    = STARLINK-36556
OBJECT_ID      = 2026-020AB
CENTER_NAME    = EARTH
REF_FRAME      = TEME
TIME_SYSTEM    = UTC
MEAN_ELEMENT_THEORY = SGP/SGP4

EPOCH          = 2026-02-22T21:12:38.566080
MEAN_MOTION    = 15.76374659
ECCENTRICITY   = .00017974
INCLINATION    = 42.9985
RA_OF_ASC_NODE = 231.7673
ARG_OF_PERICENTER = 256.2869
MEAN_ANOMALY   = 103.7801

EPHEMERIS_TYPE = 0
CLASSIFICATION_TYPE = U
NORAD_CAT_ID   = 67642
ELEMENT_SET_NO = 999
REV_AT_EPOCH   = 375
BSTAR          = .55629594E-3
MEAN_MOTION_DOT = .91114E-3
MEAN_MOTION_DDOT = 0

CCSDS_OMM_VERS = 2.0
CREATION_DATE  = 
ORIGINATOR     = 

OBJECT_NAME    = STARLINK-36533
OBJECT_ID      = 2026-020AC
CENTER_NAME    = EARTH
REF_FRAME      = TEME
TIME_SYSTEM    = UTC
MEAN_ELEMENT_THEORY = SGP/SGP4

EPOCH          = 2026-02-22T20:00:17.112096
MEAN_MOTION    = 15.76366936
ECCENTRICITY   = .00011265
INCLINATION    = 42.9984
RA_OF_ASC_NODE = 232.2588
ARG_OF_PERICENTER = 319.7190
MEAN_ANOMALY   = 40.3596

EPHEMERIS_TYPE = 0
CLASSIFICATION_TYPE = U
NORAD_CAT_ID   = 67643
ELEMENT_SET_NO = 999
REV_AT_EPOCH   = 374
BSTAR          = -.49318483E-3
MEAN_MOTION_DOT = -.80041E-3
MEAN_MOTION_DDOT = 0

CCSDS_OMM_VERS = 2.0
CREATION_DATE  = 
ORIGINATOR     = 

OBJECT_NAME    = STARLINK-36623
OBJECT_ID      = 2026-020AD
CENTER_NAME    = EARTH
REF_FRAME      = TEME
TIME_SYSTEM    = UTC
MEAN_ELEMENT_THEORY = SGP/SGP4

EPOCH          = 2026-02-22T21:22:05.097792
MEAN_MOTION    = 15.76468084
ECCENTRICITY   = .00017712
INCLINATION    = 42.9982
RA_OF_ASC_NODE = 231.8200
ARG_OF_PERICENTER = 283.7097
MEAN_ANOMALY   = 76.3576

EPHEMERIS_TYPE = 0
CLASSIFICATION_TYPE = U
NORAD_CAT_ID   = 67644
ELEMENT_SET_NO = 999
REV_AT_EPOCH   = 375
BSTAR          = .14116538E-2
MEAN_MOTION_DOT = .236994E-2
MEAN_MOTION_DDOT = 0

CCSDS_OMM_VERS = 2.0
CREATION_DATE  = 
ORIGINATOR     = 

OBJECT_NAME    = STARLINK-36619
OBJECT_ID      = 2026-020AE
CENTER_NAME    = EARTH
REF_FRAME      = TEME
TIME_SYSTEM    = UTC
MEAN_ELEMENT_THEORY = SGP/SGP4

EPOCH          = 2026-02-22T21:18:56.457216
MEAN_MOTION    = 15.76471348
ECCENTRICITY   = .00014196
INCLINATION    = 42.9968
RA_OF_ASC_NODE = 231.8034
ARG_OF_PERICENTER = 319.4635
MEAN_ANOMALY   = 40.6128

EPHEMERIS_TYPE = 0
CLASSIFICATION_TYPE = U
NORAD_CAT_ID   = 67645
ELEMENT_SET_NO = 999
REV_AT_EPOCH   = 375
BSTAR          = .17841436E-2
MEAN_MOTION_DOT = .302037E-2
MEAN_MOTION_DDOT = 0

CCSDS_OMM_VERS = 2.0
CREATION_DATE  = 
ORIGINATOR     = 

OBJECT_NAME    = ALSAT-3B
OBJECT_ID      = 2026-021A
CENTER_NAME    = EARTH
REF_FRAME      = TEME
TIME_SYSTEM    = UTC
MEAN_ELEMENT_THEORY = SGP/SGP4

EPOCH          = 2026-02-22T22:28:04.410624
MEAN_MOTION    = 15.23707840
ECCENTRICITY   = .0012729
INCLINATION    = 97.4691
RA_OF_ASC_NODE = 128.3370
ARG_OF_PERICENTER = 180.8634
MEAN_ANOMALY   = 179.2583

EPHEMERIS_TYPE = 0
CLASSIFICATION_TYPE = U
NORAD_CAT_ID   = 67646
ELEMENT_SET_NO = 999
REV_AT_EPOCH   = 347
BSTAR          = .34220271E-3
MEAN_MOTION_DOT = .8165E-4
MEAN_MOTION_DDOT = 0

CCSDS_OMM_VERS = 2.0
CREATION_DATE  = 
ORIGINATOR     = 

OBJECT_NAME    = CZ-2C R/B
OBJECT_ID      = 2026-021B
CENTER_NAME    = EARTH
REF_FRAME      = TEME
TIME_SYSTEM    = UTC
MEAN_ELEMENT_THEORY = SGP/SGP4

EPOCH          = 2026-02-22T22:32:54.178080
MEAN_MOTION    = 15.23666320
ECCENTRICITY   = .01529092
INCLINATION    = 97.6531
RA_OF_ASC_NODE = 129.1131
ARG_OF_PERICENTER = 62.5866
MEAN_ANOMALY   = 299.0831

EPHEMERIS_TYPE = 0
CLASSIFICATION_TYPE = U
NORAD_CAT_ID   = 67647
ELEMENT_SET_NO = 999
REV_AT_EPOCH   = 345
BSTAR          = .44419168E-3
MEAN_MOTION_DOT = .14772E-3
MEAN_MOTION_DDOT = 0

